[{"OBJECT_NAME":"STARLINK-4352","OBJECT_ID":"2022-077E","EPOCH":"2026-03-09T22:56:34.644192","MEAN_MOTION":15.01259069,"ECCENTRICITY":0.00014078,"INCLINATION":97.6021,"RA_OF_ASC_NODE":250.5114,"ARG_OF_PERICENTER":97.3037,"MEAN_ANOMALY":262.8347,"EPHEMERIS_TYPE":0,"CLASSIFICATION_TYPE":"U","NORAD_CAT_ID":53047,"ELEMENT_SET_NO":999,"REV_AT_EPOCH":20096,"BSTAR":-6.7954167e-5,"MEAN_MOTION_DOT":-9.31e-6,"MEAN_MOTION_DDOT":0},{"OBJECT_NAME":"COSMOS 375 DEB","OBJECT_ID":"1970-091AV","EPOCH":"2026-03-08T14:58:13.963008","MEAN_MOTION":13.44113345,"ECCENTRICITY":0.07825177,"INCLINATION":62.6579,"RA_OF_ASC_NODE":178.3172,"ARG_OF_PERICENTER":107.019,"MEAN_ANOMALY":261.8029,"EPHEMERIS_TYPE":0,"CLASSIFICATION_TYPE":"U","NORAD_CAT_ID":18866,"ELEMENT_SET_NO":999,"REV_AT_EPOCH":70150,"BSTAR":0.0010424485,"MEAN_MOTION_DOT":4.043e-5,"MEAN_MOTION_DDOT":0}]
